{"type": "FeatureCollection", "features": [ {"type": "Feature", "properties": {"norad_id": 43437, "name": "SENTINEL-3B", "group": "resource", "lat": -61.72488209203186, "lon": -131.44915867941054, "alt_km": 810.8245103050194, "timestamp": "2025-12-25T22:42:16.654044+00:00", "meta": {"OBJECT_NAME": "SENTINEL-3B", "OBJECT_ID": "2018-039A", "EPOCH": "2025-12-25T18:12:12.174336", "MEAN_MOTION": 14.26739017, "ECCENTRICITY": 0.0001586, "INCLINATION": 98.6249, "RA_OF_ASC_NODE": 64.7561, "ARG_OF_PERICENTER": 88.7501, "MEAN_ANOMALY": 271.3861, "EPHEMERIS_TYPE": 0, "CLASSIFICATION_TYPE": "U", "NORAD_CAT_ID": 43437, "ELEMENT_SET_NO": 999, "REV_AT_EPOCH": 39939, "BSTAR": 7.9528e-05, "MEAN_MOTION_DOT": 1.49e-06, "MEAN_MOTION_DDOT": 0}, "tle": {"line1": "1 43437U 18039A   25359.75847424  .00000149  00000+0  79528-4 0  9995", "line2": "2 43437  98.6249  64.7561 0001586  88.7501 271.3861 14.26739017399390"}}, "geometry": {"type": "Point", "coordinates": [-131.44915867941054, -61.72488209203186]}}, {"type": "Feature", "properties": {"norad_id": 43461, "name": "GAOFEN-5 01", "group": "resource", "lat": 30.409348475336603, "lon": -41.850990022789645, "alt_km": 690.5442780808753, "timestamp": "2025-12-25T22:42:16.654055+00:00", "meta": {"OBJECT_NAME": "GAOFEN-5 01", "OBJECT_ID": "2018-043A", "EPOCH": "2025-12-25T11:03:13.805280", "MEAN_MOTION": 14.60423137, "ECCENTRICITY": 5.4e-05, "INCLINATION": 98.4346, "RA_OF_ASC_NODE": 322.6511, "ARG_OF_PERICENTER": 238.5141, "MEAN_ANOMALY": 121.6006, "EPHEMERIS_TYPE": 0, "CLASSIFICATION_TYPE": "U", "NORAD_CAT_ID": 43461, "ELEMENT_SET_NO": 999, "REV_AT_EPOCH": 40633, "BSTAR": 0.00010964, "MEAN_MOTION_DOT": 4.82e-06, "MEAN_MOTION_DDOT": 0}, "tle": {"line1": "1 43461U 18043A   25359.46057645  .00000482  00000+0  10964-3 0  9991", "line2": "2 43461  98.4346 322.6511 0000540 238.5141 121.6006 14.60423137406330"}}, "geometry": {"type": "Point", "coordinates": [-41.850990022789645, 30.409348475336603]}}, {"type": "Feature", "properties": {"norad_id": 43484, "name": "GAOFEN-6", "group": "resource", "lat": 71.31041454591542, "lon": 39.86057247378922, "alt_km": 627.4407343382754, "timestamp": "2025-12-25T22:42:16.654065+00:00", "meta": {"OBJECT_NAME": "GAOFEN-6", "OBJECT_ID": "2018-048A", "EPOCH": "2025-12-25T17:29:49.485408", "MEAN_MOTION": 14.76588011, "ECCENTRICITY": 0.0012528, "INCLINATION": 97.801, "RA_OF_ASC_NODE": 63.5587, "ARG_OF_PERICENTER": 24.8634, "MEAN_ANOMALY": 335.3178, "EPHEMERIS_TYPE": 0, "CLASSIFICATION_TYPE": "U", "NORAD_CAT_ID": 43484, "ELEMENT_SET_NO": 999, "REV_AT_EPOCH": 40779, "BSTAR": 0.00010289, "MEAN_MOTION_DOT": 6.69e-06, "MEAN_MOTION_DDOT": 0}, "tle": {"line1": "1 43484U 18048A   25359.72904497  .00000669  00000+0  10289-3 0  9993", "line2": "2 43484  97.8010  63.5587 0012528  24.8634 335.3178 14.76588011407797"}}, "geometry": {"type": "Point", "coordinates": [39.86057247378922, 71.31041454591542]}}, {"type": "Feature", "properties": {"norad_id": 43585, "name": "GAOFEN-11 01", "group": "resource", "lat": 80.75447993934218, "lon": -66.73510152763765, "alt_km": 412.81573548005144, "timestamp": "2025-12-25T22:42:16.654075+00:00", "meta": {"OBJECT_NAME": "GAOFEN-11 01", "OBJECT_ID": "2018-063A", "EPOCH": "2025-12-25T17:38:33.976608", "MEAN_MOTION": 15.49585838, "ECCENTRICITY": 0.0003919, "INCLINATION": 97.1534, "RA_OF_ASC_NODE": 62.5624, "ARG_OF_PERICENTER": 246.2401, "MEAN_ANOMALY": 113.844, "EPHEMERIS_TYPE": 0, "CLASSIFICATION_TYPE": "U", "NORAD_CAT_ID": 43585, "ELEMENT_SET_NO": 999, "REV_AT_EPOCH": 41343, "BSTAR": 0.00032022, "MEAN_MOTION_DOT": 0.00017614, "MEAN_MOTION_DDOT": 0}, "tle": {"line1": "1 43585U 18063A   25359.73511547  .00017614  00000+0  32022-3 0  9990", "line2": "2 43585  97.1534  62.5624 0003919 246.2401 113.8440 15.49585838413434"}}, "geometry": {"type": "Point", "coordinates": [-66.73510152763765, 80.75447993934218]}}, {"type": "Feature", "properties": {"norad_id": 43613, "name": "ICESAT-2", "group": "resource", "lat": -84.82622528989272, "lon": 41.55707321987847, "alt_km": 490.469365547865, "timestamp": "2025-12-25T22:42:16.654091+00:00", "meta": {"OBJECT_NAME": "ICESAT-2", "OBJECT_ID": "2018-070A", "EPOCH": "2025-12-25T16:49:59.030688", "MEAN_MOTION": 15.28248594, "ECCENTRICITY": 0.0003118, "INCLINATION": 92.0035, "RA_OF_ASC_NODE": 244.2353, "ARG_OF_PERICENTER": 109.4364, "MEAN_ANOMALY": 250.7223, "EPHEMERIS_TYPE": 0, "CLASSIFICATION_TYPE": "U", "NORAD_CAT_ID": 43613, "ELEMENT_SET_NO": 999, "REV_AT_EPOCH": 40596, "BSTAR": 0.00048082, "MEAN_MOTION_DOT": 0.00013235, "MEAN_MOTION_DDOT": 0}, "tle": {"line1": "1 43613U 18070A   25359.70137767  .00013235  00000+0  48082-3 0  9993", "line2": "2 43613  92.0035 244.2353 0003118 109.4364 250.7223 15.28248594405964"}}, "geometry": {"type": "Point", "coordinates": [41.55707321987847, -84.82622528989272]}}, {"type": "Feature", "properties": {"norad_id": 43719, "name": "HYSIS", "group": "resource", "lat": -27.257566764726043, "lon": -121.30098210443587, "alt_km": 639.800034130365, "timestamp": "2025-12-25T22:42:16.654102+00:00", "meta": {"OBJECT_NAME": "HYSIS", "OBJECT_ID": "2018-096A", "EPOCH": "2025-12-25T18:31:16.747968", "MEAN_MOTION": 14.78680186, "ECCENTRICITY": 8.31e-05, "INCLINATION": 98.0077, "RA_OF_ASC_NODE": 62.6847, "ARG_OF_PERICENTER": 54.3112, "MEAN_ANOMALY": 305.8176, "EPHEMERIS_TYPE": 0, "CLASSIFICATION_TYPE": "U", "NORAD_CAT_ID": 43719, "ELEMENT_SET_NO": 999, "REV_AT_EPOCH": 38179, "BSTAR": 0.00019521, "MEAN_MOTION_DOT": 1.379e-05, "MEAN_MOTION_DDOT": 0}, "tle": {"line1": "1 43719U 18096A   25359.77172162  .00001379  00000+0  19521-3 0  9995", "line2": "2 43719  98.0077  62.6847 0000831  54.3112 305.8176 14.78680186381795"}}, "geometry": {"type": "Point", "coordinates": [-121.30098210443587, -27.257566764726043]}}, {"type": "Feature", "properties": {"norad_id": 43783, "name": "KAZSTSAT", "group": "resource", "lat": -14.15845429837361, "lon": 36.45313339078739, "alt_km": 572.3359647187726, "timestamp": "2025-12-25T22:42:16.654112+00:00", "meta": {"OBJECT_NAME": "KAZSTSAT", "OBJECT_ID": "2018-099AB", "EPOCH": "2025-12-25T16:21:41.281056", "MEAN_MOTION": 14.99372858, "ECCENTRICITY": 0.0006346, "INCLINATION": 97.4512, "RA_OF_ASC_NODE": 34.3083, "ARG_OF_PERICENTER": 272.4562, "MEAN_ANOMALY": 87.5935, "EPHEMERIS_TYPE": 0, "CLASSIFICATION_TYPE": "U", "NORAD_CAT_ID": 43783, "ELEMENT_SET_NO": 999, "REV_AT_EPOCH": 38530, "BSTAR": 6.286e-05, "MEAN_MOTION_DOT": 7.13e-06, "MEAN_MOTION_DDOT": 0}, "tle": {"line1": "1 43783U 18099AB  25359.68172779  .00000713  00000+0  62860-4 0  9999", "line2": "2 43783  97.4512  34.3083 0006346 272.4562  87.5935 14.99372858385305"}}, "geometry": {"type": "Point", "coordinates": [36.45313339078739, -14.15845429837361]}}, {"type": "Feature", "properties": {"norad_id": 43831, "name": "SAUDISAT 5A", "group": "resource", "lat": -30.133781566873637, "lon": -124.40520299487481, "alt_km": 501.91965993972735, "timestamp": "2025-12-25T22:42:16.654123+00:00", "meta": {"OBJECT_NAME": "SAUDISAT 5A", "OBJECT_ID": "2018-102A", "EPOCH": "2025-12-25T18:38:17.602368", "MEAN_MOTION": 15.2581528, "ECCENTRICITY": 0.0011012, "INCLINATION": 97.333, "RA_OF_ASC_NODE": 59.7156, "ARG_OF_PERICENTER": 35.5526, "MEAN_ANOMALY": 324.6444, "EPHEMERIS_TYPE": 0, "CLASSIFICATION_TYPE": "U", "NORAD_CAT_ID": 43831, "ELEMENT_SET_NO": 999, "REV_AT_EPOCH": 38921, "BSTAR": 0.00026639, "MEAN_MOTION_DOT": 6.752e-05, "MEAN_MOTION_DDOT": 0}, "tle": {"line1": "1 43831U 18102A   25359.77659262  .00006752  00000+0  26639-3 0  9997", "line2": "2 43831  97.3330  59.7156 0011012  35.5526 324.6444 15.25815280389217"}}, "geometry": {"type": "Point", "coordinates": [-124.40520299487481, -30.133781566873637]}}, {"type": "Feature", "properties": {"norad_id": 43833, "name": "SAUDISAT 5B", "group": "resource", "lat": -78.4204807491613, "lon": 101.64444035070342, "alt_km": 498.4281211181551, "timestamp": "2025-12-25T22:42:16.654133+00:00", "meta": {"OBJECT_NAME": "SAUDISAT 5B", "OBJECT_ID": "2018-102C", "EPOCH": "2025-12-25T18:20:17.967840", "MEAN_MOTION": 15.26160439, "ECCENTRICITY": 0.0011756, "INCLINATION": 97.3425, "RA_OF_ASC_NODE": 62.4654, "ARG_OF_PERICENTER": 37.556, "MEAN_ANOMALY": 322.6497, "EPHEMERIS_TYPE": 0, "CLASSIFICATION_TYPE": "U", "NORAD_CAT_ID": 43833, "ELEMENT_SET_NO": 999, "REV_AT_EPOCH": 38932, "BSTAR": 0.00023746, "MEAN_MOTION_DOT": 6.074e-05, "MEAN_MOTION_DDOT": 0}, "tle": {"line1": "1 43833U 18102C   25359.76409685  .00006074  00000+0  23746-3 0  9993", "line2": "2 43833  97.3425  62.4654 0011756  37.5560 322.6497 15.26160439389321"}}, "geometry": {"type": "Point", "coordinates": [101.64444035070342, -78.4204807491613]}}, {"type": "Feature", "properties": {"norad_id": 44622, "name": "GAOFEN-10R", "group": "resource", "lat": -30.901754694209384, "lon": -47.648262634238, "alt_km": 622.3815212165009, "timestamp": "2025-12-25T22:42:16.654144+00:00", "meta": {"OBJECT_NAME": "GAOFEN-10R", "OBJECT_ID": "2019-066A", "EPOCH": "2025-12-25T17:59:11.510592", "MEAN_MOTION": 14.82835396, "ECCENTRICITY": 0.0006953, "INCLINATION": 98.0295, "RA_OF_ASC_NODE": 307.3077, "ARG_OF_PERICENTER": 3.406, "MEAN_ANOMALY": 356.7199, "EPHEMERIS_TYPE": 0, "CLASSIFICATION_TYPE": "U", "NORAD_CAT_ID": 44622, "ELEMENT_SET_NO": 999, "REV_AT_EPOCH": 33667, "BSTAR": 0.00021898, "MEAN_MOTION_DOT": 1.718e-05, "MEAN_MOTION_DDOT": 0}, "tle": {"line1": "1 44622U 19066A   25359.74943878  .00001718  00000+0  21898-3 0  9991", "line2": "2 44622  98.0295 307.3077 0006953   3.4060 356.7199 14.82835396336670"}}, "geometry": {"type": "Point", "coordinates": [-47.648262634238, -30.901754694209384]}}]}